
STARLINK-32168          
1 60335U 24136G   25004.12073146  .00015384  00000+0  53015-3 0  9995
2 60335  53.1591 271.1158 0002020  81.8556 278.2674 15.30218286 25059
STARLINK-32079          
1 60336U 24136H   25004.11755646  .00008709  00000+0  30602-3 0  9997
2 60336  53.1597 271.0956 0001720  95.8247 264.2949 15.30179922 25108
STARLINK-32078          
1 60338U 24136K   25004.11336343  .00000996  00000+0  45810-4 0  9996
2 60338  53.1606 271.0667 0003277  70.1584 289.9770 15.30172254 25061
STARLINK-32175          
1 60339U 24136L   25004.43782077 -.00000094  00000+0  89734-5 0  9995
2 60339  53.1591 269.5393 0001520  93.0474 267.0701 15.30198178 25114
STARLINK-32176          
1 60340U 24136M   25004.43464409  .00006637  00000+0  23626-3 0  9997
2 60340  53.1602 269.5162 0001482 110.5179 249.5981 15.30164491 25113
STARLINK-32185          
1 60341U 24136N   25004.03537856 -.00045009  00000+0 -15169-2 0  9991
2 60341  53.1571 271.2904 0001396  54.7653 305.3478 15.30194642 25048
STARLINK-32221          
1 60342U 24136P   25004.16918113 -.00000215  00000+0  48909-5 0  9995
2 60342  53.1590 270.7012 0001875  31.1203 328.9908 15.30199822 25017
STARLINK-32083          
1 60343U 24136Q   25004.43147862  .00001658  00000+0  68089-4 0  9992
2 60343  53.1591 269.4631 0000685 116.1350 243.9721 15.30194153 24892
STARLINK-32077          
1 60344U 24136R   25004.03221355  .00013341  00000+0  46184-3 0  9992
2 60344  53.1581 271.2700 0001973  72.9863 287.1354 15.30193542 25040
STARLINK-32075          
1 60345U 24136S   25004.41987085  .00008731  00000+0  30691-3 0  9997
2 60345  53.1605 269.4240 0001251  84.2670 275.8473 15.30163231 25102
STARLINK-32082          
1 60346U 24136T   25004.42093255  .00002919  00000+0  11073-3 0  9991
2 60346  53.1603 269.4286 0003401  76.1386 283.9993 15.30183814 25054
STARLINK-32084          
1 60347U 24136U   25003.76460923  .00003281  00000+0  12278-3 0  9999
2 60347  53.1592 272.4402 0000281 198.7202 161.3789 15.30211325 23843
STARLINK-32081          
1 60348U 24136V   25004.15335066  .00005385  00000+0  19398-3 0  9990
2 60348  53.1585 270.6034 0001089  86.6449 273.4677 15.30168563 25110
STARLINK-32181          
1 60349U 24136W   25004.14384878  .00004466  00000+0  16303-3 0  9997
2 60349  53.1605 270.5435 0001309  91.7536 268.3615 15.30160004 24854
STARLINK-32076          
1 60350U 24136X   25004.14700926  .00004475  00000+0  16334-3 0  9999
2 60350  53.1614 270.5612 0001244  79.7114 280.4027 15.30159157 25062
STARLINK-32097          
1 60351U 24136Y   25003.16095252  .00004078  00000+0  14977-3 0  9990
2 60351  53.1617 275.0681 0001319  75.5450 284.5697 15.30192843 23753
STRIX-4                 
1 60352U 24137A   25004.14766075  .00019199  00000+0  10534-2 0  9993
2 60352  43.0215  10.9810 0008413 129.6612 230.4978 15.13805663 23359
STARLINK-32285          
1 60355U 24138A   25004.52083162 -.00124455  00000+0 -32630-2 0  9993
2 60355  53.1601 142.7867 0002541 330.6280  29.4581 15.38565877 24916
STARLINK-32278          
1 60356U 24138B   25004.38117390  .00006365  00000+0  22686-3 0  9997
2 60356  53.1640 144.0414 0000886   8.2735 351.8280 15.30196178 24886
STARLINK-32287          
1 60358U 24138D   25004.37801993  .00007843  00000+0  27696-3 0  9995
2 60358  53.1582 144.0337 0001086 101.4370 258.6753 15.30161515 24887
STARLINK-32290          
1 60359U 24138E   25004.00001157 -.00044821  00000+0 -15076-2 0  9997
2 60359  53.1604 145.8142 0001232  78.4966 346.4139 15.30256355 24772
STARLINK-32275          
1 60360U 24138F   25004.08933586  .00000471  00000+0  28018-4 0  9990
2 60360  53.1626 145.0722 0000978  71.9634 288.1473 15.30184204 24844
STARLINK-32227          
1 60361U 24138G   25004.11255126 -.00002252  00000+0 -64016-4 0  9991
2 60361  53.1618 145.2057 0000278 316.6305  43.4674 15.30164536 24858
STARLINK-32256          
1 60362U 24138H   25004.37905790 -.00002961  00000+0 -87835-4 0  9990
2 60362  53.1601 144.0277 0000781 286.9554  73.1361 15.30222779 24886
STARLINK-32267          
1 60363U 24138J   25004.10726047  .00002518  00000+0  97096-4 0  9994
2 60363  53.1580 145.1831 0001142  91.3203 268.7929 15.30199610 24847
STARLINK-32270          
1 60364U 24138K   25004.50001157 -.00034027  00000+0 -11413-2 0  9996
2 60364  53.1599 143.2704 0001101  87.3351 324.0737 15.30218577 24780
STARLINK-32188          
1 60365U 24138L   25004.41904523  .00001706  00000+0  69683-4 0  9996
2 60365  53.1621 143.5766 0000692  73.8700 286.2377 15.30213012 24890
STARLINK-32230          
1 60366U 24138M   25003.91667824  .00052224  00000+0  17615-2 0  9998
2 60366  53.1598 146.0512 0002160  30.1220  10.8059 15.30226995  5943
STARLINK-32243          
1 60367U 24138N   25004.09459919  .00001567  00000+0  65029-4 0  9991
2 60367  53.1647 145.1018 0001794  96.2911 263.8294 15.30200378 24413
STARLINK-32271          
1 60368U 24138P   25003.91667824  .00029444  00000+0  10018-2 0  9998
2 60368  53.1603 146.1542 0001736  35.5270 313.3448 15.30216150  5774
STARLINK-32266          
1 60369U 24138Q   25004.07676623  .00003050  00000+0  86239-4 0  9999
2 60369  53.1549 133.4133 0003673  94.8999 265.2425 15.39618262 25004
STARLINK-32220          
1 60370U 24138R   25004.10093863 -.00001097  00000+0 -24962-4 0  9990
2 60370  53.1623 145.1421 0000446 174.4979 185.6027 15.30173617 24842
STARLINK-32263          
1 60371U 24138S   25003.74578019  .00002335  00000+0  68332-4 0  9994
2 60371  53.1592 146.4795 0001958  86.0029 274.1199 15.39626365 24586
STARLINK-32268          
1 60372U 24138T   25004.37694788  .00007070  00000+0  25072-3 0  9991
2 60372  53.1555 144.0242 0001641 103.2850 256.8334 15.30186193 24882
STARLINK-32223          
1 60373U 24138U   25004.42224682 -.00013843  00000+0 -45485-3 0  9997
2 60373  53.1587 143.5930 0001380  69.8968 290.2181 15.30288719 24826
STARLINK-32180          
1 60374U 24138V   25004.09777317 -.00001186  00000+0 -27936-4 0  9998
2 60374  53.1630 145.1218 0000745  83.8555 276.2531 15.30183668 24847
STARLINK-32281          
1 60375U 24138W   25004.46959354 -.00060222  00000+0 -15334-2 0  9996
2 60375  53.1624 143.1766 0000765  47.6616 312.4453 15.39102797 24620
STARLINK-32277          
1 60376U 24138X   25004.10411112 -.00000198  00000+0  54388-5 0  9993
2 60376  53.1588 145.1598 0001195 122.9441 237.1675 15.30176838 24858
STARLINK-32269          
1 60377U 24138Y   25003.76169726 -.00000688  00000+0 -11112-4 0  9998
2 60377  53.1629 146.5806 0000730 203.9514 156.1453 15.30186924 24791
CYGNUS NG-21            
1 60378U 24139A   25003.77764841  .00018791  00000+0  32800-3 0  9998
2 60378  51.6380  41.5017 0006182  39.4225 320.7213 15.50709481 22089
QIANFAN-1               
1 60379U 24140A   25003.91564790  .00000091  00000+0  12179-3 0  9999
2 60379  88.9891 334.5367 0019115 121.4476 238.8547 13.51063692 21065
QIANFAN-2               
1 60380U 24140B   25004.46278109  .00000195  00000+0  28379-3 0  9992
2 60380  88.9877 334.3677 0014804  94.7665 265.5177 13.50906424 21193
QIANFAN-3               
1 60381U 24140C   25004.54499888  .00000161  00000+0  23113-3 0  9995
2 60381  88.9870 334.5170 0015804 105.7225 254.5671 13.50906618 21117
QIANFAN-4               
1 60382U 24140D   25004.18109221  .00000176  00000+0  23981-3 0  9994
2 60382  88.9893 334.3740 0015710  92.5669 267.7283 13.54381111 21175
QIANFAN-5               
1 60383U 24140E   25004.49572052  .00000194  00000+0  28135-3 0  9991
2 60383  88.9869 334.5485 0016900 116.1416 244.1475 13.50907303 21098
QIANFAN-6               
1 60384U 24140F   25004.37672023  .00000152  00000+0  16829-3 0  9999
2 60384  88.9929 334.2497 0017079  96.0488 264.2619 13.66356843 21254
QIANFAN-7               
1 60385U 24140G   25004.37640556  .00001729  00000+0  70208-3 0  9998
2 60385  88.9898 333.7082 0017432  85.8025 274.5161 14.27134705 21558
QIANFAN-8               
1 60386U 24140H   25004.45534666  .00000124  00000+0  16420-3 0  9996
2 60386  88.9897 334.4401 0018339 104.9575 255.3610 13.54013971 21164
QIANFAN-9               
1 60387U 24140J   25004.49980881  .00000185  00000+0  26702-3 0  9996
2 60387  88.9896 334.5164 0018167 104.2107 256.1063 13.50904363 21110
QIANFAN-10              
1 60388U 24140K   25004.54283968  .00000203  00000+0  16431-3 0  9994
2 60388  88.9896 334.0537 0018661  90.9323 269.3986 13.86163707 21387
QIANFAN-11              
1 60389U 24140L   25004.46690074  .00000208  00000+0  30285-3 0  9994
2 60389  88.9832 334.6764 0016061 103.5631 256.7311 13.50905999 20997
QIANFAN-12              
1 60390U 24140M   25004.41336038  .00000187  00000+0  27063-3 0  9994
2 60390  88.9874 334.5759 0014936 111.0876 249.1874 13.50907084 21068
QIANFAN-13              
1 60391U 24140N   25004.45864336  .00000192  00000+0  27861-3 0  9998
2 60391  88.9887 334.6288 0014725 113.2070 247.0633 13.50907274 21046
QIANFAN-14              
1 60392U 24140P   25004.40926582  .00000175  00000+0  25181-3 0  9990
2 60392  88.9865 334.6049 0018403 114.1117 246.1962 13.50906769 21040
QIANFAN-15              
1 60393U 24140Q   25004.41755047  .00000193  00000+0  28023-3 0  9996
2 60393  88.9889 334.4794 0014304 101.2806 258.9954 13.50905000 21128
QIANFAN-16              
1 60394U 24140R   25004.55327403  .00000160  00000+0  22893-3 0  9996
2 60394  88.9892 334.5749 0016276 116.8285 243.4533 13.50906564 21080
QIANFAN-17              
1 60395U 24140S   25004.47516194  .00000178  00000+0  25688-3 0  9999
2 60395  88.9903 334.5905 0016749 111.5534 248.7404 13.50910475 21061
QIANFAN-18              
1 60396U 24140T   25002.63930085  .00000357  00000+0  40657-3 0  9997
2 60396  88.9886 334.3664 0016875  96.2921 264.0162 13.67683444 21042
